{
    "week": 288,
    "satellites": [
        {
            "Name": "COSMOS 2433 (720)",
            "Line1": "1 32275U 07052A   24291.22618490 -.00000040  00000+0  00000+0 0  9996",
            "Line2": "2 32275  65.8857 336.3191 0005580 239.7464 120.2729  2.13103972132107",
            "SatelliteNumber": "32275",
            "Classification": "U",
            "LaunchYear": "07",
            "LaunchNumber": "052",
            "PieceOfLaunch": "A",
            "EpochYear": "24",
            "EpochDay": 291.2261849,
            "FirstDerivativeMeanMotion": -4e-07,
            "SecondDerivativeMeanMotion": "00000+0",
            "BSTAR": "00000+0",
            "SetNumber": "999",
            "Inclination": 65.8857,
            "RAAN": 336.3191,
            "Eccentricity": 0.000558,
            "ArgumentOfPerigee": 239.7464,
            "MeanAnomaly": 120.2729,
            "MeanMotion": 2.13103972,
            "RevolutionNumber": "13210"
        },
        {
            "Name": "COSMOS 2432 (719)",
            "Line1": "1 32276U 07052B   24291.33763042 -.00000041  00000+0  00000+0 0  9994",
            "Line2": "2 32276  65.9008 336.4315 0010090 308.8500  82.5009  2.13103024132139",
            "SatelliteNumber": "32276",
            "Classification": "U",
            "LaunchYear": "07",
            "LaunchNumber": "052",
            "PieceOfLaunch": "B",
            "EpochYear": "24",
            "EpochDay": 291.33763042,
            "FirstDerivativeMeanMotion": -4.1e-07,
            "SecondDerivativeMeanMotion": "00000+0",
            "BSTAR": "00000+0",
            "SetNumber": "999",
            "Inclination": 65.9008,
            "RAAN": 336.4315,
            "Eccentricity": 0.001009,
            "ArgumentOfPerigee": 308.85,
            "MeanAnomaly": 82.5009,
            "MeanMotion": 2.13103024,
            "RevolutionNumber": "13213"
        },
        {
            "Name": "COSMOS 2434 (721)",
            "Line1": "1 32393U 07065A   24290.67316454  .00000011  00000+0  00000+0 0  9991",
            "Line2": "2 32393  64.3178 212.4610 0002210  64.2480 123.6538  2.13101207130803",
            "SatelliteNumber": "32393",
            "Classification": "U",
            "LaunchYear": "07",
            "LaunchNumber": "065",
            "PieceOfLaunch": "A",
            "EpochYear": "24",
            "EpochDay": 290.67316454,
            "FirstDerivativeMeanMotion": 1.1e-07,
            "SecondDerivativeMeanMotion": "00000+0",
            "BSTAR": "00000+0",
            "SetNumber": "999",
            "Inclination": 64.3178,
            "RAAN": 212.461,
            "Eccentricity": 0.000221,
            "ArgumentOfPerigee": 64.248,
            "MeanAnomaly": 123.6538,
            "MeanMotion": 2.13101207,
            "RevolutionNumber": "13080"
        },
        {
            "Name": "COSMOS 2436 (723)",
            "Line1": "1 32395U 07065C   24291.29811022  .00000015  00000+0  00000+0 0  9997",
            "Line2": "2 32395  64.3263 212.5056 0016814   0.6197  81.6114  2.13099957130776",
            "SatelliteNumber": "32395",
            "Classification": "U",
            "LaunchYear": "07",
            "LaunchNumber": "065",
            "PieceOfLaunch": "C",
            "EpochYear": "24",
            "EpochDay": 291.29811022,
            "FirstDerivativeMeanMotion": 1.5e-07,
            "SecondDerivativeMeanMotion": "00000+0",
            "BSTAR": "00000+0",
            "SetNumber": "999",
            "Inclination": 64.3263,
            "RAAN": 212.5056,
            "Eccentricity": 0.0016814,
            "ArgumentOfPerigee": 0.6197,
            "MeanAnomaly": 81.6114,
            "MeanMotion": 2.13099957,
            "RevolutionNumber": "13077"
        },
        {
            "Name": "COSMOS 2456 (730)",
            "Line1": "1 36111U 09070A   24291.60610794  .00000039  00000+0  00000+0 0  9999",
            "Line2": "2 36111  64.6722  91.7569 0001346 329.7271   8.2040  2.13103655115471",
            "SatelliteNumber": "36111",
            "Classification": "U",
            "LaunchYear": "09",
            "LaunchNumber": "070",
            "PieceOfLaunch": "A",
            "EpochYear": "24",
            "EpochDay": 291.60610794,
            "FirstDerivativeMeanMotion": 3.9e-07,
            "SecondDerivativeMeanMotion": "00000+0",
            "BSTAR": "00000+0",
            "SetNumber": "999",
            "Inclination": 64.6722,
            "RAAN": 91.7569,
            "Eccentricity": 0.0001346,
            "ArgumentOfPerigee": 329.7271,
            "MeanAnomaly": 8.204,
            "MeanMotion": 2.13103655,
            "RevolutionNumber": "11547"
        },
        {
            "Name": "COSMOS 2457 (733)",
            "Line1": "1 36112U 09070B   24291.52955809  .00000039  00000+0  00000+0 0  9990",
            "Line2": "2 36112  64.6567  91.6154 0006267 144.9211 267.2896  2.13101092115486",
            "SatelliteNumber": "36112",
            "Classification": "U",
            "LaunchYear": "09",
            "LaunchNumber": "070",
            "PieceOfLaunch": "B",
            "EpochYear": "24",
            "EpochDay": 291.52955809,
            "FirstDerivativeMeanMotion": 3.9e-07,
            "SecondDerivativeMeanMotion": "00000+0",
            "BSTAR": "00000+0",
            "SetNumber": "999",
            "Inclination": 64.6567,
            "RAAN": 91.6154,
            "Eccentricity": 0.0006267,
            "ArgumentOfPerigee": 144.9211,
            "MeanAnomaly": 267.2896,
            "MeanMotion": 2.13101092,
            "RevolutionNumber": "11548"
        },
        {
            "Name": "COSMOS 2460 (732)",
            "Line1": "1 36402U 10007C   24291.53379288 -.00000041  00000+0  00000+0 0  9990",
            "Line2": "2 36402  65.7395 334.9530 0002615 242.4576 166.4650  2.13106123113780",
            "SatelliteNumber": "36402",
            "Classification": "U",
            "LaunchYear": "10",
            "LaunchNumber": "007",
            "PieceOfLaunch": "C",
            "EpochYear": "24",
            "EpochDay": 291.53379288,
            "FirstDerivativeMeanMotion": -4.1e-07,
            "SecondDerivativeMeanMotion": "00000+0",
            "BSTAR": "00000+0",
            "SetNumber": "999",
            "Inclination": 65.7395,
            "RAAN": 334.953,
            "Eccentricity": 0.0002615,
            "ArgumentOfPerigee": 242.4576,
            "MeanAnomaly": 166.465,
            "MeanMotion": 2.13106123,
            "RevolutionNumber": "11378"
        },
        {
            "Name": "COSMOS 2476 (744)",
            "Line1": "1 37867U 11064A   24291.42228535  .00000045  00000+0  00000+0 0  9999",
            "Line2": "2 37867  64.9428  93.4435 0022036 230.3467 238.4119  2.13101509100812",
            "SatelliteNumber": "37867",
            "Classification": "U",
            "LaunchYear": "11",
            "LaunchNumber": "064",
            "PieceOfLaunch": "A",
            "EpochYear": "24",
            "EpochDay": 291.42228535,
            "FirstDerivativeMeanMotion": 4.5e-07,
            "SecondDerivativeMeanMotion": "00000+0",
            "BSTAR": "00000+0",
            "SetNumber": "999",
            "Inclination": 64.9428,
            "RAAN": 93.4435,
            "Eccentricity": 0.0022036,
            "ArgumentOfPerigee": 230.3467,
            "MeanAnomaly": 238.4119,
            "MeanMotion": 2.13101509,
            "RevolutionNumber": "10081"
        },
        {
            "Name": "COSMOS 2477 (745)",
            "Line1": "1 37868U 11064B   24291.48578520  .00000044  00000+0  00000+0 0  9997",
            "Line2": "2 37868  64.9499  93.5150 0019176 230.4942 105.7098  2.13102965100804",
            "SatelliteNumber": "37868",
            "Classification": "U",
            "LaunchYear": "11",
            "LaunchNumber": "064",
            "PieceOfLaunch": "B",
            "EpochYear": "24",
            "EpochDay": 291.4857852,
            "FirstDerivativeMeanMotion": 4.4e-07,
            "SecondDerivativeMeanMotion": "00000+0",
            "BSTAR": "00000+0",
            "SetNumber": "999",
            "Inclination": 64.9499,
            "RAAN": 93.515,
            "Eccentricity": 0.0019176,
            "ArgumentOfPerigee": 230.4942,
            "MeanAnomaly": 105.7098,
            "MeanMotion": 2.13102965,
            "RevolutionNumber": "10080"
        },
        {
            "Name": "COSMOS 2475 (743)",
            "Line1": "1 37869U 11064C   24291.53681584  .00000044  00000+0  00000+0 0  9999",
            "Line2": "2 37869  64.9568  93.5294 0023494 247.5561  85.6658  2.13101696100814",
            "SatelliteNumber": "37869",
            "Classification": "U",
            "LaunchYear": "11",
            "LaunchNumber": "064",
            "PieceOfLaunch": "C",
            "EpochYear": "24",
            "EpochDay": 291.53681584,
            "FirstDerivativeMeanMotion": 4.4e-07,
            "SecondDerivativeMeanMotion": "00000+0",
            "BSTAR": "00000+0",
            "SetNumber": "999",
            "Inclination": 64.9568,
            "RAAN": 93.5294,
            "Eccentricity": 0.0023494,
            "ArgumentOfPerigee": 247.5561,
            "MeanAnomaly": 85.6658,
            "MeanMotion": 2.13101696,
            "RevolutionNumber": "10081"
        }
    ]
}